[{"OBJECT_NAME":"STARLINK-5412","OBJECT_ID":"2022-175BA","EPOCH":"2026-03-09T06:45:05.867424","MEAN_MOTION":15.08842697,"ECCENTRICITY":0.00014265,"INCLINATION":53.2171,"RA_OF_ASC_NODE":30.546,"ARG_OF_PERICENTER":83.9398,"MEAN_ANOMALY":276.1757,"EPHEMERIS_TYPE":0,"CLASSIFICATION_TYPE":"U","NORAD_CAT_ID":54806,"ELEMENT_SET_NO":999,"REV_AT_EPOCH":18007,"BSTAR":4.8222683e-5,"MEAN_MOTION_DOT":4.8e-6,"MEAN_MOTION_DDOT":0},{"OBJECT_NAME":"CZ-4C R\/B","OBJECT_ID":"2021-026B","EPOCH":"2026-03-09T16:37:41.696544","MEAN_MOTION":15.16445633,"ECCENTRICITY":0.00393855,"INCLINATION":97.7468,"RA_OF_ASC_NODE":117.371,"ARG_OF_PERICENTER":22.5612,"MEAN_ANOMALY":337.7341,"EPHEMERIS_TYPE":0,"CLASSIFICATION_TYPE":"U","NORAD_CAT_ID":48080,"ELEMENT_SET_NO":999,"REV_AT_EPOCH":27175,"BSTAR":0.00026802982,"MEAN_MOTION_DOT":5.244e-5,"MEAN_MOTION_DDOT":0}]
